{
    "links": {
        "self": "http://www.neowsapp.com/rest/v1/neo/3878581?api_key=iIulBulltgU6a56xZRHN4H3l9WmuAYTsLGpBGhQ2"
    },
    "id": "3878581",
    "neo_reference_id": "3878581",
    "name": "(2019 TQ2)",
    "designation": "2019 TQ2",
    "nasa_jpl_url": "http://ssd.jpl.nasa.gov/sbdb.cgi?sstr=3878581",
    "absolute_magnitude_h": 24.8,
    "estimated_diameter": {
        "kilometers": {
            "estimated_diameter_min": 0.0291443905,
            "estimated_diameter_max": 0.0651688382
        },
        "meters": {
            "estimated_diameter_min": 29.1443904535,
            "estimated_diameter_max": 65.1688382168
        },
        "miles": {
            "estimated_diameter_min": 0.018109479,
            "estimated_diameter_max": 0.0404940262
        },
        "feet": {
            "estimated_diameter_min": 95.6180819754,
            "estimated_diameter_max": 213.8085311752
        }
    },
    "is_potentially_hazardous_asteroid": false,
    "close_approach_data": [
        {
            "close_approach_date": "2019-10-25",
            "close_approach_date_full": "2019-Oct-25 11:00",
            "epoch_date_close_approach": 1572001200000,
            "relative_velocity": {
                "kilometers_per_second": "12.3682843068",
                "kilometers_per_hour": "44525.8235045174",
                "miles_per_hour": "27666.6151659042"
            },
            "miss_distance": {
                "astronomical": "0.032780675",
                "lunar": "12.751682575",
                "kilometers": "4903919.15716225",
                "miles": "3047154.06584905"
            },
            "orbiting_body": "Earth"
        }
    ],
    "orbital_data": {
        "orbit_id": "10",
        "orbit_determination_date": "2020-09-11 07:44:47",
        "first_observation_date": "2019-10-05",
        "last_observation_date": "2019-10-28",
        "data_arc_in_days": 23,
        "observations_used": 55,
        "orbit_uncertainty": "7",
        "minimum_orbit_intersection": ".0311353",
        "jupiter_tisserand_invariant": "2.900",
        "epoch_osculation": "2459000.5",
        "eccentricity": ".6727071118447209",
        "semi_major_axis": "2.869288990032624",
        "inclination": "8.45100605212207",
        "ascending_node_longitude": "22.91913978213817",
        "orbital_period": "1775.251403513904",
        "perihelion_distance": ".9390978804999215",
        "perihelion_argument": "44.66321828149306",
        "aphelion_distance": "4.799480099565328",
        "perihelion_time": "2458808.634807528843",
        "mean_anomaly": "38.90799306109399",
        "mean_motion": ".2027881793459911",
        "equinox": "J2000",
        "orbit_class": {
            "orbit_class_type": "APO",
            "orbit_class_description": "Near-Earth asteroid orbits which cross the Earth’s orbit similar to that of 1862 Apollo",
            "orbit_class_range": "a (semi-major axis) > 1.0 AU; q (perihelion) < 1.017 AU"
        }
    },
    "is_sentry_object": false
}